OBJECT_NAME,OBJECT_ID,EPOCH,MEAN_MOTION,ECCENTRICITY,INCLINATION,RA_OF_ASC_NODE,ARG_OF_PERICENTER,MEAN_ANOMALY,EPHEMERIS_TYPE,CLASSIFICATION_TYPE,NORAD_CAT_ID,ELEMENT_SET_NO,REV_AT_EPOCH,BSTAR,MEAN_MOTION_DOT,MEAN_MOTION_DDOT
TIANMU-1 21,2023-208C,2026-07-13T04:30:06.247584,15.35528911,.0006515,97.4526,314.0863,211.7748,148.3103,0,U,58662,999,14155,.17226E-3,.5868E-4,0
TIANMU-1 22,2023-208D,2026-07-13T03:31:33.068928,15.31410127,.000258,97.4521,310.5020,228.0098,132.0924,0,U,58663,999,14130,.1582E-3,.472E-4,0
TIANMU-1 15,2024-004A,2026-07-13T04:20:58.790400,15.26901718,.0005909,97.4665,20.3719,237.1261,122.9410,0,U,58700,999,13974,.12933E-3,.3343E-4,0
TIANMU-1 16,2024-004B,2026-07-13T04:06:00.436032,15.27005047,.0004377,97.4613,19.5793,255.2610,104.8143,0,U,58701,999,13974,.12914E-3,.3348E-4,0
TIANMU-1 17,2024-004C,2026-07-13T05:19:27.670656,15.27002760,.0003856,97.4640,20.1248,262.1402,97.9399,0,U,58702,999,13974,.12511E-3,.3241E-4,0
TIANMU-1 18,2024-004D,2026-07-13T04:44:52.185408,15.26917748,.0003615,97.4659,20.3632,234.1991,125.8912,0,U,58703,999,13974,.11725E-3,.3024E-4,0
INSAT-3DS,2024-033A,2026-07-13T01:52:40.868256,1.00271086,.0001027,0.0973,265.1388,226.0543,270.0098,0,U,58990,999,4732,0,-.157E-5,0
METEOR-M2 4,2024-039A,2026-07-13T05:02:20.358240,14.22432015,.0008245,98.7024,153.1828,93.7011,266.5110,0,U,59051,999,12296,.85892E-5,-.25E-6,0
GOES 19,2024-119A,2026-07-13T02:50:25.724256,1.00271858,.0000451,0.0168,202.8362,12.0413,43.5299,0,U,60133,999,722,0,-.25E-5,0
MTG-S1,2025-143A,2026-07-13T03:11:48.528384,1.00273068,.0003496,0.5858,344.5847,261.9948,91.9672,0,U,64723,999,367,0,-.9E-7,0
METOP-SGA1,2025-172A,2026-07-13T00:03:48.803616,14.19818960,.0007194,98.6631,253.1845,338.8709,21.2169,0,U,65159,999,4745,.25896E-4,.12E-6,0
FENGYUN 3H,2025-219A,2026-07-12T19:57:34.885728,14.19924570,.0001198,98.6772,134.1029,62.7938,297.3361,0,U,65815,999,4102,.16895E-4,-.7E-7,0
