TIANMU-1 21             
1 58662U 23208C   26194.18757231  .00005868  00000+0  17226-3 0  9995
2 58662  97.4526 314.0863 0006515 211.7748 148.3103 15.35528911141550
TIANMU-1 22             
1 58663U 23208D   26194.14691052  .00004720  00000+0  15820-3 0  9994
2 58663  97.4521 310.5020 0002580 228.0098 132.0924 15.31410127141308
TIANMU-1 15             
1 58700U 24004A   26194.18123600  .00003343  00000+0  12933-3 0  9996
2 58700  97.4665  20.3719 0005909 237.1261 122.9410 15.26901718139749
TIANMU-1 16             
1 58701U 24004B   26194.17083838  .00003348  00000+0  12914-3 0  9998
2 58701  97.4613  19.5793 0004377 255.2610 104.8143 15.27005047139745
TIANMU-1 17             
1 58702U 24004C   26194.22184804  .00003241  00000+0  12511-3 0  9995
2 58702  97.4640  20.1248 0003856 262.1402  97.9399 15.27002760139740
TIANMU-1 18             
1 58703U 24004D   26194.19782622  .00003024  00000+0  11725-3 0  9999
2 58703  97.4659  20.3632 0003615 234.1991 125.8912 15.26917748139747
INSAT-3DS               
1 58990U 24033A   26194.07825079 -.00000157  00000+0  00000+0 0  9995
2 58990   0.0973 265.1388 0001027 226.0543 270.0098  1.00271086 47324
METEOR-M2 4             
1 59051U 24039A   26194.20995785 -.00000025  00000+0  85892-5 0  9999
2 59051  98.7024 153.1828 0008245  93.7011 266.5110 14.22432015122965
GOES 19                 
1 60133U 24119A   26194.11835329 -.00000250  00000+0  00000+0 0  9990
2 60133   0.0168 202.8362 0000451  12.0413  43.5299  1.00271858  7229
MTG-S1                  
1 64723U 25143A   26194.13320056 -.00000009  00000+0  00000+0 0  9997
2 64723   0.5858 344.5847 0003496 261.9948  91.9672  1.00273068  3673
METOP-SGA1              
1 65159U 25172A   26194.00264819  .00000012  00000+0  25896-4 0  9991
2 65159  98.6631 253.1845 0007194 338.8709  21.2169 14.19818960 47456
FENGYUN 3H              
1 65815U 25219A   26193.83165377 -.00000007  00000+0  16895-4 0  9995
2 65815  98.6772 134.1029 0001198  62.7938 297.3361 14.19924570 41020
